[{"OBJECT_NAME":"GLOBALSTAR M090","OBJECT_ID":"2011-080E","EPOCH":"2026-03-09T18:02:24.533376","MEAN_MOTION":12.62271909,"ECCENTRICITY":9.451e-5,"INCLINATION":52.011,"RA_OF_ASC_NODE":271.101,"ARG_OF_PERICENTER":93.3649,"MEAN_ANOMALY":347.2221,"EPHEMERIS_TYPE":0,"CLASSIFICATION_TYPE":"U","NORAD_CAT_ID":38044,"ELEMENT_SET_NO":999,"REV_AT_EPOCH":65715,"BSTAR":0.00010518372,"MEAN_MOTION_DOT":-8.5e-7,"MEAN_MOTION_DDOT":0},{"OBJECT_NAME":"DELTA 1 R\/B","OBJECT_ID":"1976-077B","EPOCH":"2026-03-09T23:49:56.470080","MEAN_MOTION":12.50505783,"ECCENTRICITY":0.00611575,"INCLINATION":102.0398,"RA_OF_ASC_NODE":61.9885,"ARG_OF_PERICENTER":215.9049,"MEAN_ANOMALY":210.2934,"EPHEMERIS_TYPE":0,"CLASSIFICATION_TYPE":"U","NORAD_CAT_ID":9063,"ELEMENT_SET_NO":999,"REV_AT_EPOCH":30670,"BSTAR":0.00010522104,"MEAN_MOTION_DOT":-3.0e-7,"MEAN_MOTION_DDOT":0}]
